STARLINK-4099           
1 53146U 22083Q   23185.88561072 -.00000341  00000+0 -33309-5 0  9992
2 53146  53.2168 248.1441 0000632  96.0791 264.0273 15.08835911 54085
STARLINK-4094           
1 53147U 22083R   23185.46976791  .00000494  00000+0  49102-4 0  9999
2 53147  53.2166 250.0126 0000982  76.2304 283.8797 15.08839209 54022
STARLINK-4066           
1 53148U 22083S   23186.47168336  .00000496  00000+0  49239-4 0  9993
2 53148  53.2151 245.5219 0000983  84.2647 275.8458 15.08842049 54176
STARLINK-4021           
1 53149U 22083T   23185.47804905 -.00000328  00000+0 -25119-5 0  9990
2 53149  53.2148 239.9740 0001242  79.4635 280.6497 15.08839466 54166
STARLINK-4038           
1 53150U 22083U   23185.84974341  .00015549  00000+0  99255-3 0  9994
2 53150  53.2145 238.3070 0001020  55.9212 304.1877 15.08851809 54213
STARLINK-4040           
1 53151U 22083V   23185.44124569 -.00000228  00000+0  37616-5 0  9994
2 53151  53.2145 240.1401 0000949  64.2685 295.8405 15.08841030 54150
STARLINK-4045           
1 53152U 22083W   23186.44221163  .00000040  00000+0  20582-4 0  9998
2 53152  53.2159 235.6472 0001018  87.5950 272.5158 15.08837838 54309
STARLINK-4098           
1 53153U 22083X   23186.43116874  .00000007  00000+0  18531-4 0  9994
2 53153  53.2159 235.6959 0001053  88.7277 271.3836 15.08839382 54300
STARLINK-4077           
1 53154U 22083Y   23185.44492741 -.00000020  00000+0  16850-4 0  9993
2 53154  53.2168 240.1227 0001061  91.7330 268.3784 15.08839547 54157
STARLINK-4088           
1 53155U 22083Z   23186.42380733 -.00000054  00000+0  14667-4 0  9991
2 53155  53.2163 235.7255 0000915  86.0190 274.0907 15.08841529 54303
STARLINK-4087           
1 53156U 22083AA  23186.34651340 -.00000109  00000+0  11235-4 0  9997
2 53156  53.2162 235.9473 0001004  78.2337 281.8768 15.08838625 54295
STARLINK-4093           
1 53157U 22083AB  23185.55532496  .00000130  00000+0  26255-4 0  9991
2 53157  53.2158 239.6233 0001000  85.8440 274.2667 15.08843657 54173
STARLINK-4054           
1 53158U 22083AC  23185.43388972 -.00000032  00000+0  16045-4 0  9995
2 53158  53.2171 240.1738 0000943  90.8072 269.3028 15.08837607 54150
STARLINK-4111           
1 53159U 22083AD  23185.41548496 -.00002090  00000+0 -11331-3 0  9992
2 53159  53.2154 240.2553 0001093  91.0684 269.0433 15.08834313 54155
STARLINK-4096           
1 53160U 22083AE  23185.42652816  .00000346  00000+0  39795-4 0  9992
2 53160  53.2161 240.2058 0000973  88.6130 271.4974 15.08841257 54151
STARLINK-4055           
1 53161U 22083AF  23186.39805045  .00000432  00000+0  45248-4 0  9990
2 53161  53.2164 235.8435 0000915  79.5476 280.5619 15.08839518 54303
STARLINK-4114           
1 53162U 22083AG  23185.42012492  .00000564  00000+0  53476-4 0  9998
2 53162  53.2144 240.2396 0000807  91.9610 268.1475 15.08840181 54159
STARLINK-4104           
1 53163U 22083AH  23185.86172635  .00000495  00000+0  49202-4 0  9998
2 53163  53.2158 238.2516 0000986  88.9303 271.1802 15.08840457 54221
STARLINK-4116           
1 53164U 22083AJ  23186.40173033  .00000432  00000+0  45252-4 0  9995
2 53164  53.2160 235.8261 0001011  81.2337 278.8769 15.08838940 54307
STARLINK-4090           
1 53165U 22083AK  23185.59212663  .00001020  00000+0  82165-4 0  9996
2 53165  53.2169 239.4619 0001112  96.7434 263.3685 15.08842355 54182
STARLINK-4110           
1 53166U 22083AL  23186.39437135 -.00000103  00000+0  11605-4 0  9992
2 53166  53.2161 235.8599 0000944  79.3044 280.8054 15.08836270 54305
STARLINK-3683           
1 53167U 22083AM  23185.41134540  .00000161  00000+0  28176-4 0  9993
2 53167  53.2148 225.2640 0000664  89.1706 270.9363 15.08838241 54363
STARLINK-4105           
1 53168U 22083AN  23186.32444897  .00000726  00000+0  63701-4 0  9994
2 53168  53.2164 236.1739 0000888  81.6867 278.4226 15.08839189 54290
STARLINK-4117           
1 53169U 22083AP  23186.38289557  .00000576  00000+0  54271-4 0  9996
2 53169  53.2152 221.1723 0000905  85.7247 274.3849 15.08843514 54509
STARLINK-4095           
1 53170U 22083AQ  23186.41874122  .00001604  00000+0  11883-3 0  9994
2 53170  53.2165 230.6999 0000853  80.2935 279.8154 15.08836480 54379
STARLINK-4052           
1 53171U 22083AR  23186.32717760  .00000213  00000+0  31439-4 0  9994
2 53171  53.2149 205.9202 0001021  86.8075 273.3034 15.08842538 54714
STARLINK-4299           
1 53172U 22083AS  23185.41777698  .00000657  00000+0  59370-4 0  9996
2 53172  53.2147 235.1542 0000808  78.9799 281.1284 15.08840308 54225
STARLINK-4300           
1 53173U 22083AT  23186.36538406 -.00000013  00000+0  17235-4 0  9995
2 53173  53.2160 210.9804 0000821  90.2542 269.8544 15.08841662 54643
STARLINK-4205           
1 53174U 22083AU  23185.46608677  .00000087  00000+0  23553-4 0  9994
2 53174  53.2163 250.0278 0000978  82.2382 277.8722 15.08839693 54023
STARLINK-4292           
1 53175U 22083AV  23185.46240827 -.00000330  00000+0 -26267-5 0  9993
2 53175  53.2171 250.0432 0000942  72.0665 288.0430 15.08840769 54023
STARLINK-4294           
1 53176U 22083AW  23186.06269723 -.00000986  00000+0 -43883-4 0  9996
2 53176  53.2164 222.2600 0000939  75.4933 284.6163 15.08834534 54461
STARLINK-4298           
1 53177U 22083AX  23185.36442538  .00000611  00000+0  56488-4 0  9994
2 53177  53.2143 215.4730 0000983  72.3671 287.7429 15.08840872 54495
STARLINK-4280           
1 53178U 22083AY  23186.38332906  .00000523  00000+0  50950-4 0  9995
2 53178  53.2163 235.9098 0000846  88.1594 271.9495 15.08840609 54282
STARLINK-4276           
1 53179U 22083AZ  23185.31607781  .00000192  00000+0  30142-4 0  9997
2 53179  53.2155 200.2985 0001070  87.6427 272.4687 15.08840408 54706
STARLINK-4258           
1 53180U 22083BA  23186.32905919  .00000106  00000+0  24729-4 0  9994
2 53180  53.2156 195.9552 0001043  84.4973 275.6138 15.08839922 54851
STARLINK-4273           
1 53181U 22083BB  23186.32810400  .00000009  00000+0  18619-4 0  9998
2 53181  53.2154 195.9516 0000894  60.3271 299.7810 15.08840672 54855
STARLINK-4278           
1 53182U 22083BC  23186.35434522 -.00000129  00000+0  99774-5 0  9995
2 53182  53.2153 211.0286 0001022  84.9297 275.1812 15.08840628 54641
STARLINK-4268           
1 53183U 22083BD  23185.76645697  .00000275  00000+0  35381-4 0  9991
2 53183  53.2159 203.5923 0001108  86.2368 273.8750 15.08839328 54697
STARLINK-4257           
1 53184U 22083BE  23186.04103671 -.00000097  00000+0  11985-4 0  9992
2 53184  53.2154 197.0296 0001074  80.7395 279.3718 15.08841404 54811
STARLINK-4391           
1 53189U 22084A   23185.13029588  .00000444  00000+0  39145-4 0  9994
2 53189  97.6560 245.9471 0000403 221.1924 138.9270 15.01263538 52732
STARLINK-4332           
1 53190U 22084B   23186.42421970  .00000600  00000+0  51286-4 0  9994
2 53190  97.6543 247.2250 0001225 104.1955 255.9406 15.01264739 52928
STARLINK-4369           
1 53191U 22084C   23186.05208038  .00000747  00000+0  62713-4 0  9991
2 53191  97.6565 246.8791 0001616 103.6950 256.4454 15.01260792 52868
STARLINK-4375           
1 53192U 22084D   23186.05022702  .00000951  00000+0  78656-4 0  9994
2 53192  97.6563 246.8786 0001471 106.7605 253.3781 15.01261806 52867
STARLINK-4351           
1 53193U 22084E   23185.92247981  .00000603  00000+0  51567-4 0  9994
2 53193  97.6570 246.7489 0001902 101.0036 259.1402 15.01261548 52856
STARLINK-4382           
1 53194U 22084F   23186.05393260  .00000441  00000+0  38919-4 0  9998
2 53194  97.6564 246.8801 0001512 106.5143 253.6247 15.01261134 52863
STARLINK-4404           
1 53195U 22084G   23186.44088365 -.00000002  00000+0  44731-5 0  9993
2 53195  97.6553 247.2809 0002038  93.7121 266.4336 15.01265678 52927
STARLINK-4407           
1 53196U 22084H   23185.70956201  .00000354  00000+0  32162-4 0  9998
2 53196  97.6566 246.5565 0001952 102.1421 258.0022 15.01258311 52818
STARLINK-4403           
1 53197U 22084J   23186.04467087  .00001186  00000+0  96939-4 0  9992
2 53197  97.6553 246.8744 0001851  99.4771 260.6663 15.01265496 52868
STARLINK-4385           
1 53198U 22084K   23186.04837515  .00000809  00000+0  67577-4 0  9997
2 53198  97.6559 246.8770 0001750 105.9327 254.2090 15.01262925 52869
STARLINK-4395           
1 53199U 22084L   23186.45038664  .00000717  00000+0  60417-4 0  9995
2 53199  97.6565 247.2557 0001784 102.6428 257.4996 15.01264111 52924
STARLINK-4417           
1 53200U 22084M   23186.04652711  .00000477  00000+0  41718-4 0  9994
2 53200  97.6552 246.8759 0001930 101.2243 258.9198 15.01262075 52865
STARLINK-4405           
1 53201U 22084N   23186.43903354  .00000271  00000+0  25688-4 0  9990
2 53201  97.6549 247.2627 0002003  95.8143 264.3310 15.01263682 52929
STARLINK-4411           
1 53202U 22084P   23186.41904609  .00000372  00000+0  34270-4 0  9992
2 53202  97.6538 247.2838 0005018 176.9965 183.1289 15.00452513 52929
STARLINK-4409           
1 53203U 22084Q   23186.43533034  .00000049  00000+0  84004-5 0  9997
2 53203  97.6542 247.2577 0001931  98.9531 261.1912 15.01263804 52921
STARLINK-4410           
1 53204U 22084R   23186.03936508  .00001300  00000+0  10581-3 0  9995
2 53204  97.6553 246.8709 0001976  96.7335 263.4114 15.01263714 52865
STARLINK-4397           
1 53205U 22084S   23186.16501745  .00001277  00000+0  10400-3 0  9994
2 53205  97.6533 246.9883 0001755  98.1308 262.0115 15.01264479 52886
STARLINK-4408           
1 53206U 22084T   23186.42050904 -.00000674  00000+0 -47851-4 0  9993
2 53206  97.6523 247.2706 0000839 134.3709 225.7584 15.01268952 52925
STARLINK-4413           
1 53207U 22084U   23185.89655851  .00000169  00000+0  17768-4 0  9997
2 53207  97.6529 246.7204 0001815 101.9308 258.2120 15.01260916 52849
STARLINK-4425           
1 53208U 22084V   23186.03727095  .00000679  00000+0  57418-4 0  9997
2 53208  97.6547 246.8661 0002103 100.6967 259.4494 15.01262864 52869
STARLINK-4423           
1 53209U 22084W   23186.16155958  .00000178  00000+0  18424-4 0  9993
2 53209  97.6535 246.9789 0001596 103.8619 256.2782 15.01262454 52885
